CCSDS_OMM_VERS = 2.0
CREATION_DATE  = 
ORIGINATOR     = 

OBJECT_NAME    = 2025-234D
OBJECT_ID      = 2025-234D
CENTER_NAME    = EARTH
REF_FRAME      = TEME
TIME_SYSTEM    = UTC
MEAN_ELEMENT_THEORY = SGP/SGP4

EPOCH          = 2025-10-27T19:24:10.205280
MEAN_MOTION    = 15.21374345
ECCENTRICITY   = .0014427
INCLINATION    = 97.4548
RA_OF_ASC_NODE = 6.3975
ARG_OF_PERICENTER = 249.8858
MEAN_ANOMALY   = 110.0826

EPHEMERIS_TYPE = 0
CLASSIFICATION_TYPE = U
NORAD_CAT_ID   = 66056
ELEMENT_SET_NO = 999
REV_AT_EPOCH   = 131
BSTAR          = .9142E-3
MEAN_MOTION_DOT = .20521E-3
MEAN_MOTION_DDOT = 0

CCSDS_OMM_VERS = 2.0
CREATION_DATE  = 
ORIGINATOR     = 

OBJECT_NAME    = 2025-234E
OBJECT_ID      = 2025-234E
CENTER_NAME    = EARTH
REF_FRAME      = TEME
TIME_SYSTEM    = UTC
MEAN_ELEMENT_THEORY = SGP/SGP4

EPOCH          = 2025-10-22T03:39:05.023008
MEAN_MOTION    = 15.21126112
ECCENTRICITY   = .00221527
INCLINATION    = 97.5441
RA_OF_ASC_NODE = 0.7365
ARG_OF_PERICENTER = 241.6098
MEAN_ANOMALY   = 118.2904

EPHEMERIS_TYPE = 0
CLASSIFICATION_TYPE = U
NORAD_CAT_ID   = 66057
ELEMENT_SET_NO = 999
REV_AT_EPOCH   = 46
BSTAR          = .33848292E-3
MEAN_MOTION_DOT = .7512E-4
MEAN_MOTION_DDOT = 0

CCSDS_OMM_VERS = 2.0
CREATION_DATE  = 
ORIGINATOR     = 

OBJECT_NAME    = TJS-20
OBJECT_ID      = 2025-238A
CENTER_NAME    = EARTH
REF_FRAME      = TEME
TIME_SYSTEM    = UTC
MEAN_ELEMENT_THEORY = SGP/SGP4

EPOCH          = 2025-10-24T00:30:38.644704
MEAN_MOTION    = 1.72601617
ECCENTRICITY   = .77630572
INCLINATION    = 16.4249
RA_OF_ASC_NODE = 273.2021
ARG_OF_PERICENTER = 165.3209
MEAN_ANOMALY   = 248.2978

EPHEMERIS_TYPE = 0
CLASSIFICATION_TYPE = U
NORAD_CAT_ID   = 66142
ELEMENT_SET_NO = 999
REV_AT_EPOCH   = 2
BSTAR          = .89265633E-3
MEAN_MOTION_DOT = .7775E-4
MEAN_MOTION_DDOT = .152554E-5

CCSDS_OMM_VERS = 2.0
CREATION_DATE  = 
ORIGINATOR     = 

OBJECT_NAME    = CZ-5 R/B
OBJECT_ID      = 2025-238B
CENTER_NAME    = EARTH
REF_FRAME      = TEME
TIME_SYSTEM    = UTC
MEAN_ELEMENT_THEORY = SGP/SGP4

EPOCH          = 2025-10-27T14:22:42.011904
MEAN_MOTION    = 1.92875404
ECCENTRICITY   = .7596328
INCLINATION    = 16.4110
RA_OF_ASC_NODE = 272.0445
ARG_OF_PERICENTER = 166.5132
MEAN_ANOMALY   = 240.7154

EPHEMERIS_TYPE = 0
CLASSIFICATION_TYPE = U
NORAD_CAT_ID   = 66143
ELEMENT_SET_NO = 999
REV_AT_EPOCH   = 9
BSTAR          = .11893E-2
MEAN_MOTION_DOT = .23701E-3
MEAN_MOTION_DDOT = .26258E-6

CCSDS_OMM_VERS = 2.0
CREATION_DATE  = 
ORIGINATOR     = 

OBJECT_NAME    = SPAINSAT NG II
OBJECT_ID      = 2025-239A
CENTER_NAME    = EARTH
REF_FRAME      = TEME
TIME_SYSTEM    = UTC
MEAN_ELEMENT_THEORY = SGP/SGP4

EPOCH          = 2025-10-26T05:32:56.579424
MEAN_MOTION    = 1.16247591
ECCENTRICITY   = .8210204
INCLINATION    = 26.5646
RA_OF_ASC_NODE = 246.4594
ARG_OF_PERICENTER = 179.1564
MEAN_ANOMALY   = 185.1625

EPHEMERIS_TYPE = 0
CLASSIFICATION_TYPE = U
NORAD_CAT_ID   = 66144
ELEMENT_SET_NO = 999
REV_AT_EPOCH   = 4
BSTAR          = .38427E-2
MEAN_MOTION_DOT = .69E-6
MEAN_MOTION_DDOT = 0

CCSDS_OMM_VERS = 2.0
CREATION_DATE  = 
ORIGINATOR     = 

OBJECT_NAME    = HTV-X 1
OBJECT_ID      = 2025-241A
CENTER_NAME    = EARTH
REF_FRAME      = TEME
TIME_SYSTEM    = UTC
MEAN_ELEMENT_THEORY = SGP/SGP4

EPOCH          = 2025-10-27T11:51:43.149024
MEAN_MOTION    = 15.52723727
ECCENTRICITY   = .0004046
INCLINATION    = 51.6338
RA_OF_ASC_NODE = 11.4824
ARG_OF_PERICENTER = 344.0379
MEAN_ANOMALY   = 16.0483

EPHEMERIS_TYPE = 0
CLASSIFICATION_TYPE = U
NORAD_CAT_ID   = 66174
ELEMENT_SET_NO = 999
REV_AT_EPOCH   = 24
BSTAR          = .16773E-3
MEAN_MOTION_DOT = .10095E-3
MEAN_MOTION_DDOT = 0

CCSDS_OMM_VERS = 2.0
CREATION_DATE  = 
ORIGINATOR     = 

OBJECT_NAME    = GAOFEN-14 02
OBJECT_ID      = 2025-242A
CENTER_NAME    = EARTH
REF_FRAME      = TEME
TIME_SYSTEM    = UTC
MEAN_ELEMENT_THEORY = SGP/SGP4

EPOCH          = 2025-10-27T17:06:25.344576
MEAN_MOTION    = 15.27328415
ECCENTRICITY   = .0010352
INCLINATION    = 97.4398
RA_OF_ASC_NODE = 12.8972
ARG_OF_PERICENTER = 263.2132
MEAN_ANOMALY   = 96.7929

EPHEMERIS_TYPE = 0
CLASSIFICATION_TYPE = U
NORAD_CAT_ID   = 66175
ELEMENT_SET_NO = 999
REV_AT_EPOCH   = 24
BSTAR          = .39313E-3
MEAN_MOTION_DOT = .10467E-3
MEAN_MOTION_DDOT = 0

CCSDS_OMM_VERS = 2.0
CREATION_DATE  = 
ORIGINATOR     = 

OBJECT_NAME    = CZ-3B R/B
OBJECT_ID      = 2025-242B
CENTER_NAME    = EARTH
REF_FRAME      = TEME
TIME_SYSTEM    = UTC
MEAN_ELEMENT_THEORY = SGP/SGP4

EPOCH          = 2025-10-27T16:47:10.301856
MEAN_MOTION    = 15.40870261
ECCENTRICITY   = .0105239
INCLINATION    = 97.4520
RA_OF_ASC_NODE = 12.7321
ARG_OF_PERICENTER = 37.1992
MEAN_ANOMALY   = 323.6485

EPHEMERIS_TYPE = 0
CLASSIFICATION_TYPE = U
NORAD_CAT_ID   = 66176
ELEMENT_SET_NO = 999
REV_AT_EPOCH   = 24
BSTAR          = .59491E-3
MEAN_MOTION_DOT = .29781E-3
MEAN_MOTION_DDOT = 0

CCSDS_OMM_VERS = 2.0
CREATION_DATE  = 
ORIGINATOR     = 

OBJECT_NAME    = 2025-242C
OBJECT_ID      = 2025-242C
CENTER_NAME    = EARTH
REF_FRAME      = TEME
TIME_SYSTEM    = UTC
MEAN_ELEMENT_THEORY = SGP/SGP4

EPOCH          = 2025-10-26T09:41:17.179584
MEAN_MOTION    = 15.17165482
ECCENTRICITY   = .0044551
INCLINATION    = 97.6110
RA_OF_ASC_NODE = 12.4552
ARG_OF_PERICENTER = 134.5252
MEAN_ANOMALY   = 225.9635

EPHEMERIS_TYPE = 0
CLASSIFICATION_TYPE = U
NORAD_CAT_ID   = 66177
ELEMENT_SET_NO = 999
REV_AT_EPOCH   = 3
BSTAR          = .21434E-3
MEAN_MOTION_DOT = .4293E-4
MEAN_MOTION_DDOT = 0

