2025-234D               
1 66056U 25234D   25300.80845145  .00020521  00000+0  91420-3 0  9992
2 66056  97.4548   6.3975 0014427 249.8858 110.0826 15.21374345  1312
2025-234E               
1 66057U 25234E   25295.15214147  .00007512  00000+0  33848-3 0  9991
2 66057  97.5441   0.7365 0022152 241.6098 118.2904 15.21126112   466
TJS-20                  
1 66142U 25238A   25297.02128061  .00007775  15255-5  89266-3 0  9997
2 66142  16.4249 273.2021 7763057 165.3209 248.2978  1.72601617    28
CZ-5 R/B                
1 66143U 25238B   25300.59909736  .00023701  26258-6  11893-2 0  9994
2 66143  16.4110 272.0445 7596328 166.5132 240.7154  1.92875404    95
SPAINSAT NG II          
1 66144U 25239A   25299.23121041  .00000069  00000+0  38427-2 0  9993
2 66144  26.5646 246.4594 8210204 179.1564 185.1625  1.16247591    44
HTV-X 1                 
1 66174U 25241A   25300.49424941  .00010095  00000+0  16773-3 0  9996
2 66174  51.6338  11.4824 0004046 344.0379  16.0483 15.52723727   245
GAOFEN-14 02            
1 66175U 25242A   25300.71279334  .00010467  00000+0  39313-3 0  9995
2 66175  97.4398  12.8972 0010352 263.2132  96.7929 15.27328415   242
CZ-3B R/B               
1 66176U 25242B   25300.69942479  .00029781  00000+0  59491-3 0  9998
2 66176  97.4520  12.7321 0105239  37.1992 323.6485 15.40870261   243
2025-242C               
1 66177U 25242C   25299.40367106  .00004293  00000+0  21434-3 0  9990
2 66177  97.6110  12.4552 0044551 134.5252 225.9635 15.17165482    38
